{
  "type": "FeatureCollection",
  "features": [
    {
      "type": "Feature",
      "properties": {
        "norad_id": 31888,
        "name": "FENGYUN 1C DEB",
        "group": "fengyun-1c-debris",
        "lat": -47.8091664417052,
        "lon": -69.67997361384968,
        "alt_km": 790.4727700986377,
        "timestamp": "2025-12-19T06:59:44.193122+00:00",
        "meta_object_name": "FENGYUN 1C DEB",
        "meta_object_id": "1999-025CKP",
        "meta_epoch": "2025-12-18T14:28:35.789664",
        "meta_mean_motion": 14.33989327,
        "meta_eccentricity": 0.00173492,
        "meta_inclination": 99.1539,
        "meta_ra_of_asc_node": 279.3455,
        "meta_arg_of_pericenter": 198.1719,
        "meta_mean_anomaly": 161.8846,
        "meta_ephemeris_type": 0,
        "meta_classification_type": "U",
        "meta_norad_cat_id": 31888,
        "meta_element_set_no": 999,
        "meta_rev_at_epoch": 95721,
        "meta_bstar": 0.0013176747,
        "meta_mean_motion_dot": 3.637e-05,
        "meta_mean_motion_ddot": 0,
        "tle_line1": "1 31888U 99025CKP 25352.60319201  .00003637  00000+0  13177-2 0  9991",
        "tle_line2": "2 31888  99.1539 279.3455 0017349 198.1719 161.8846 14.33989327957218"
      },
      "geometry": {
        "type": "Point",
        "coordinates": [
          -69.67997361384968,
          -47.8091664417052
        ]
      }
    },
    {
      "type": "Feature",
      "properties": {
        "norad_id": 31890,
        "name": "FENGYUN 1C DEB",
        "group": "fengyun-1c-debris",
        "lat": 29.02558958910859,
        "lon": -170.5047127612651,
        "alt_km": 841.9209131677517,
        "timestamp": "2025-12-19T06:59:44.193132+00:00",
        "meta_object_name": "FENGYUN 1C DEB",
        "meta_object_id": "1999-025CKR",
        "meta_epoch": "2025-12-18T06:26:12.801408",
        "meta_mean_motion": 14.10135343,
        "meta_eccentricity": 0.00717599,
        "meta_inclination": 98.7186,
        "meta_ra_of_asc_node": 3.6189,
        "meta_arg_of_pericenter": 226.3843,
        "meta_mean_anomaly": 133.1361,
        "meta_ephemeris_type": 0,
        "meta_classification_type": "U",
        "meta_norad_cat_id": 31890,
        "meta_element_set_no": 999,
        "meta_rev_at_epoch": 64230,
        "meta_bstar": 0.00011349556,
        "meta_mean_motion_dot": 1.63e-06,
        "meta_mean_motion_ddot": 0,
        "tle_line1": "1 31890U 99025CKR 25352.26820372  .00000163  00000+0  11350-3 0  9995",
        "tle_line2": "2 31890  98.7186   3.6189 0071759 226.3843 133.1361 14.10135343642304"
      },
      "geometry": {
        "type": "Point",
        "coordinates": [
          -170.5047127612651,
          29.02558958910859
        ]
      }
    },
    {
      "type": "Feature",
      "properties": {
        "norad_id": 31891,
        "name": "FENGYUN 1C DEB",
        "group": "fengyun-1c-debris",
        "lat": 73.88452879087738,
        "lon": -136.81990508165356,
        "alt_km": 928.3804843367789,
        "timestamp": "2025-12-19T06:59:44.193142+00:00",
        "meta_object_name": "FENGYUN 1C DEB",
        "meta_object_id": "1999-025CKS",
        "meta_epoch": "2025-12-17T12:18:03.569184",
        "meta_mean_motion": 13.66208415,
        "meta_eccentricity": 0.02250778,
        "meta_inclination": 99.402,
        "meta_ra_of_asc_node": 6.4614,
        "meta_arg_of_pericenter": 171.0093,
        "meta_mean_anomaly": 189.5187,
        "meta_ephemeris_type": 0,
        "meta_classification_type": "U",
        "meta_norad_cat_id": 31891,
        "meta_element_set_no": 999,
        "meta_rev_at_epoch": 92475,
        "meta_bstar": 0.00046704969,
        "meta_mean_motion_dot": 4.16e-06,
        "meta_mean_motion_ddot": 0,
        "tle_line1": "1 31891U 99025CKS 25351.51254131  .00000416  00000+0  46705-3 0  9990",
        "tle_line2": "2 31891  99.4020   6.4614 0225077 171.0093 189.5187 13.66208415924755"
      },
      "geometry": {
        "type": "Point",
        "coordinates": [
          -136.81990508165356,
          73.88452879087738
        ]
      }
    },
    {
      "type": "Feature",
      "properties": {
        "norad_id": 31892,
        "name": "FENGYUN 1C DEB",
        "group": "fengyun-1c-debris",
        "lat": 17.286931260636965,
        "lon": 160.70254158623288,
        "alt_km": 800.8148269253797,
        "timestamp": "2025-12-19T06:59:44.193151+00:00",
        "meta_object_name": "FENGYUN 1C DEB",
        "meta_object_id": "1999-025CKT",
        "meta_epoch": "2025-12-06T17:19:53.766912",
        "meta_mean_motion": 14.41156255,
        "meta_eccentricity": 0.01986119,
        "meta_inclination": 99.2881,
        "meta_ra_of_asc_node": 149.9643,
        "meta_arg_of_pericenter": 304.4066,
        "meta_mean_anomaly": 53.8482,
        "meta_ephemeris_type": 0,
        "meta_classification_type": "U",
        "meta_norad_cat_id": 31892,
        "meta_element_set_no": 999,
        "meta_rev_at_epoch": 64819,
        "meta_bstar": 0.001005312,
        "meta_mean_motion_dot": 4.04e-05,
        "meta_mean_motion_ddot": 0,
        "tle_line1": "1 31892U 99025CKT 25340.72215008  .00004040  00000+0  10053-2 0  9995",
        "tle_line2": "2 31892  99.2881 149.9643 0198611 304.4066  53.8482 14.41156255648199"
      },
      "geometry": {
        "type": "Point",
        "coordinates": [
          160.70254158623288,
          17.286931260636965
        ]
      }
    },
    {
      "type": "Feature",
      "properties": {
        "norad_id": 31893,
        "name": "FENGYUN 1C DEB",
        "group": "fengyun-1c-debris",
        "lat": -13.954302126246047,
        "lon": 129.951550091154,
        "alt_km": 731.0975898744946,
        "timestamp": "2025-12-19T06:59:44.193161+00:00",
        "meta_object_name": "FENGYUN 1C DEB",
        "meta_object_id": "1999-025CKU",
        "meta_epoch": "2025-12-18T03:54:35.964864",
        "meta_mean_motion": 14.6378796,
        "meta_eccentricity": 0.01745885,
        "meta_inclination": 99.0701,
        "meta_ra_of_asc_node": 310.9847,
        "meta_arg_of_pericenter": 310.0855,
        "meta_mean_anomaly": 62.09,
        "meta_ephemeris_type": 0,
        "meta_classification_type": "U",
        "meta_norad_cat_id": 31893,
        "meta_element_set_no": 999,
        "meta_rev_at_epoch": 98484,
        "meta_bstar": 0.00033216944,
        "meta_mean_motion_dot": 2.091e-05,
        "meta_mean_motion_ddot": 0,
        "tle_line1": "1 31893U 99025CKU 25352.16291626  .00002091  00000+0  33217-3 0  9999",
        "tle_line2": "2 31893  99.0701 310.9847 0174588 310.0855  62.0900 14.63787960984840"
      },
      "geometry": {
        "type": "Point",
        "coordinates": [
          129.951550091154,
          -13.954302126246047
        ]
      }
    },
    {
      "type": "Feature",
      "properties": {
        "norad_id": 31895,
        "name": "FENGYUN 1C DEB",
        "group": "fengyun-1c-debris",
        "lat": 32.10058453709659,
        "lon": -152.33839610386198,
        "alt_km": 903.7927474546914,
        "timestamp": "2025-12-19T06:59:44.193171+00:00",
        "meta_object_name": "FENGYUN 1C DEB",
        "meta_object_id": "1999-025CKW",
        "meta_epoch": "2025-12-17T19:20:56.695200",
        "meta_mean_motion": 13.75550882,
        "meta_eccentricity": 0.02271287,
        "meta_inclination": 99.0945,
        "meta_ra_of_asc_node": 20.4768,
        "meta_arg_of_pericenter": 216.2014,
        "meta_mean_anomaly": 142.3581,
        "meta_ephemeris_type": 0,
        "meta_classification_type": "U",
        "meta_norad_cat_id": 31895,
        "meta_element_set_no": 999,
        "meta_rev_at_epoch": 61966,
        "meta_bstar": 0.0018353051,
        "meta_mean_motion_dot": 2.092e-05,
        "meta_mean_motion_ddot": 0,
        "tle_line1": "1 31895U 99025CKW 25351.80621175  .00002092  00000+0  18353-2 0  9991",
        "tle_line2": "2 31895  99.0945  20.4768 0227128 216.2014 142.3581 13.75550882619665"
      },
      "geometry": {
        "type": "Point",
        "coordinates": [
          -152.33839610386198,
          32.10058453709659
        ]
      }
    },
    {
      "type": "Feature",
      "properties": {
        "norad_id": 31898,
        "name": "FENGYUN 1C DEB",
        "group": "fengyun-1c-debris",
        "lat": 22.30326859060272,
        "lon": -145.1238817103366,
        "alt_km": 766.2997380649222,
        "timestamp": "2025-12-19T06:59:44.193200+00:00",
        "meta_object_name": "FENGYUN 1C DEB",
        "meta_object_id": "1999-025CKZ",
        "meta_epoch": "2025-12-09T09:45:56.221344",
        "meta_mean_motion": 14.68362334,
        "meta_eccentricity": 0.01439261,
        "meta_inclination": 98.7065,
        "meta_ra_of_asc_node": 207.9611,
        "meta_arg_of_pericenter": 229.9634,
        "meta_mean_anomaly": 128.887,
        "meta_ephemeris_type": 0,
        "meta_classification_type": "U",
        "meta_norad_cat_id": 31898,
        "meta_element_set_no": 999,
        "meta_rev_at_epoch": 65663,
        "meta_bstar": 0.0015942515,
        "meta_mean_motion_dot": 0.00010733,
        "meta_mean_motion_ddot": 0,
        "tle_line1": "1 31898U 99025CKZ 25343.40690071  .00010733  00000+0  15943-2 0  9995",
        "tle_line2": "2 31898  98.7065 207.9611 0143926 229.9634 128.8870 14.68362334656632"
      },
      "geometry": {
        "type": "Point",
        "coordinates": [
          -145.1238817103366,
          22.30326859060272
        ]
      }
    }
  ]
}